{"type": "FeatureCollection", "features": [ {"type": "Feature", "properties": {"norad_id": 36047, "name": "COSMOS 2251 DEB", "group": "cosmos-2251-debris", "lat": -49.43656709722851, "lon": -66.9374104673363, "alt_km": 579.4064305333477, "timestamp": "2025-12-23T09:49:07.479984+00:00", "meta": {"OBJECT_NAME": "COSMOS 2251 DEB", "OBJECT_ID": "1993-036AXJ", "EPOCH": "2025-12-21T21:08:53.075040", "MEAN_MOTION": 14.96393257, "ECCENTRICITY": 0.000841, "INCLINATION": 74.036, "RA_OF_ASC_NODE": 315.6865, "ARG_OF_PERICENTER": 344.906, "MEAN_ANOMALY": 15.1873, "EPHEMERIS_TYPE": 0, "CLASSIFICATION_TYPE": "U", "NORAD_CAT_ID": 36047, "ELEMENT_SET_NO": 999, "REV_AT_EPOCH": 66076, "BSTAR": 0.0028311075, "MEAN_MOTION_DOT": 0.00032218, "MEAN_MOTION_DDOT": 0}, "tle": {"line1": "1 36047U 93036AXJ 25355.88116985  .00032218  00000+0  28311-2 0  9999", "line2": "2 36047  74.0360 315.6865 0008410 344.9060  15.1873 14.96393257660764"}}, "geometry": {"type": "Point", "coordinates": [-66.9374104673363, -49.43656709722851]}}, {"type": "Feature", "properties": {"norad_id": 36048, "name": "COSMOS 2251 DEB", "group": "cosmos-2251-debris", "lat": 21.08141785167993, "lon": 93.3388236787469, "alt_km": 784.0280349251298, "timestamp": "2025-12-23T09:49:07.479994+00:00", "meta": {"OBJECT_NAME": "COSMOS 2251 DEB", "OBJECT_ID": "1993-036AXK", "EPOCH": "2025-12-21T06:01:50.414016", "MEAN_MOTION": 14.37865645, "ECCENTRICITY": 0.0026967, "INCLINATION": 74.0573, "RA_OF_ASC_NODE": 283.6319, "ARG_OF_PERICENTER": 332.094, "MEAN_ANOMALY": 180.7418, "EPHEMERIS_TYPE": 0, "CLASSIFICATION_TYPE": "U", "NORAD_CAT_ID": 36048, "ELEMENT_SET_NO": 999, "REV_AT_EPOCH": 85624, "BSTAR": 0.00021907, "MEAN_MOTION_DOT": 6.37e-06, "MEAN_MOTION_DDOT": 0}, "tle": {"line1": "1 36048U 93036AXK 25355.25127794  .00000637  00000+0  21907-3 0  9996", "line2": "2 36048  74.0573 283.6319 0026967 332.0940 180.7418 14.37865645856245"}}, "geometry": {"type": "Point", "coordinates": [93.3388236787469, 21.08141785167993]}}, {"type": "Feature", "properties": {"norad_id": 36049, "name": "COSMOS 2251 DEB", "group": "cosmos-2251-debris", "lat": 57.75330502042786, "lon": -108.24542824973409, "alt_km": 677.1154543622233, "timestamp": "2025-12-23T09:49:07.480008+00:00", "meta": {"OBJECT_NAME": "COSMOS 2251 DEB", "OBJECT_ID": "1993-036AXL", "EPOCH": "2025-12-19T00:11:29.887584", "MEAN_MOTION": 14.62222603, "ECCENTRICITY": 0.00103942, "INCLINATION": 74.0312, "RA_OF_ASC_NODE": 107.1751, "ARG_OF_PERICENTER": 195.1693, "MEAN_ANOMALY": 164.9164, "EPHEMERIS_TYPE": 0, "CLASSIFICATION_TYPE": "U", "NORAD_CAT_ID": 36049, "ELEMENT_SET_NO": 999, "REV_AT_EPOCH": 85456, "BSTAR": 0.00099664593, "MEAN_MOTION_DOT": 4.999e-05, "MEAN_MOTION_DDOT": 0}, "tle": {"line1": "1 36049U 93036AXL 25353.00798481  .00004999  00000+0  99665-3 0  9996", "line2": "2 36049  74.0312 107.1751 0010394 195.1693 164.9164 14.62222603854561"}}, "geometry": {"type": "Point", "coordinates": [-108.24542824973409, 57.75330502042786]}}, {"type": "Feature", "properties": {"norad_id": 36050, "name": "COSMOS 2251 DEB", "group": "cosmos-2251-debris", "lat": -58.28027099907834, "lon": 19.896330224190386, "alt_km": 509.12508244918354, "timestamp": "2025-12-23T09:49:07.480018+00:00", "meta": {"OBJECT_NAME": "COSMOS 2251 DEB", "OBJECT_ID": "1993-036AXM", "EPOCH": "2025-12-22T05:32:53.453472", "MEAN_MOTION": 15.01164755, "ECCENTRICITY": 0.00884093, "INCLINATION": 74.0296, "RA_OF_ASC_NODE": 174.6923, "ARG_OF_PERICENTER": 252.1595, "MEAN_ANOMALY": 106.9934, "EPHEMERIS_TYPE": 0, "CLASSIFICATION_TYPE": "U", "NORAD_CAT_ID": 36050, "ELEMENT_SET_NO": 999, "REV_AT_EPOCH": 67177, "BSTAR": 0.00062332037, "MEAN_MOTION_DOT": 8.655e-05, "MEAN_MOTION_DDOT": 0}, "tle": {"line1": "1 36050U 93036AXM 25356.23117423  .00008655  00000+0  62332-3 0  9991", "line2": "2 36050  74.0296 174.6923 0088409 252.1595 106.9934 15.01164755671779"}}, "geometry": {"type": "Point", "coordinates": [19.896330224190386, -58.28027099907834]}}, {"type": "Feature", "properties": {"norad_id": 36053, "name": "COSMOS 2251 DEB", "group": "cosmos-2251-debris", "lat": -73.40018802333913, "lon": 28.329145159770153, "alt_km": 731.6910789439598, "timestamp": "2025-12-23T09:49:07.480028+00:00", "meta": {"OBJECT_NAME": "COSMOS 2251 DEB", "OBJECT_ID": "1993-036AXQ", "EPOCH": "2025-12-19T02:27:11.674944", "MEAN_MOTION": 14.57252603, "ECCENTRICITY": 0.00325446, "INCLINATION": 73.8697, "RA_OF_ASC_NODE": 140.476, "ARG_OF_PERICENTER": 87.3695, "MEAN_ANOMALY": 273.1193, "EPHEMERIS_TYPE": 0, "CLASSIFICATION_TYPE": "U", "NORAD_CAT_ID": 36053, "ELEMENT_SET_NO": 999, "REV_AT_EPOCH": 87537, "BSTAR": 0.0010759038, "MEAN_MOTION_DOT": 4.872e-05, "MEAN_MOTION_DDOT": 0}, "tle": {"line1": "1 36053U 93036AXQ 25353.10221846  .00004872  00000+0  10759-2 0  9994", "line2": "2 36053  73.8697 140.4760 0032544  87.3695 273.1193 14.57252603875378"}}, "geometry": {"type": "Point", "coordinates": [28.329145159770153, -73.40018802333913]}}, {"type": "Feature", "properties": {"norad_id": 36058, "name": "COSMOS 2251 DEB", "group": "cosmos-2251-debris", "lat": 73.94592394657002, "lon": 97.75113925709812, "alt_km": 672.3404873605014, "timestamp": "2025-12-23T09:49:07.480038+00:00", "meta": {"OBJECT_NAME": "COSMOS 2251 DEB", "OBJECT_ID": "1993-036AXV", "EPOCH": "2025-12-20T18:52:04.818432", "MEAN_MOTION": 14.58726339, "ECCENTRICITY": 0.00440828, "INCLINATION": 74.0229, "RA_OF_ASC_NODE": 18.1226, "ARG_OF_PERICENTER": 150.2394, "MEAN_ANOMALY": 210.1292, "EPHEMERIS_TYPE": 0, "CLASSIFICATION_TYPE": "U", "NORAD_CAT_ID": 36058, "ELEMENT_SET_NO": 999, "REV_AT_EPOCH": 66228, "BSTAR": 0.0002931852, "MEAN_MOTION_DOT": 1.357e-05, "MEAN_MOTION_DDOT": 0}, "tle": {"line1": "1 36058U 93036AXV 25354.78616688  .00001357  00000+0  29319-3 0  9994", "line2": "2 36058  74.0229  18.1226 0044082 150.2394 210.1292 14.58726339662289"}}, "geometry": {"type": "Point", "coordinates": [97.75113925709812, 73.94592394657002]}}, {"type": "Feature", "properties": {"norad_id": 36060, "name": "COSMOS 2251 DEB", "group": "cosmos-2251-debris", "lat": 65.14050030578122, "lon": -107.03816418604808, "alt_km": 750.6919391415231, "timestamp": "2025-12-23T09:49:07.480070+00:00", "meta": {"OBJECT_NAME": "COSMOS 2251 DEB", "OBJECT_ID": "1993-036AXX", "EPOCH": "2025-12-22T08:31:01.741728", "MEAN_MOTION": 14.42019225, "ECCENTRICITY": 0.00155648, "INCLINATION": 74.0279, "RA_OF_ASC_NODE": 216.7352, "ARG_OF_PERICENTER": 312.7382, "MEAN_ANOMALY": 47.2463, "EPHEMERIS_TYPE": 0, "CLASSIFICATION_TYPE": "U", "NORAD_CAT_ID": 36060, "ELEMENT_SET_NO": 999, "REV_AT_EPOCH": 85148, "BSTAR": 0.00027365576, "MEAN_MOTION_DOT": 8.73e-06, "MEAN_MOTION_DDOT": 0}, "tle": {"line1": "1 36060U 93036AXX 25356.35488127  .00000873  00000+0  27366-3 0  9999", "line2": "2 36060  74.0279 216.7352 0015564 312.7382  47.2463 14.42019225851481"}}, "geometry": {"type": "Point", "coordinates": [-107.03816418604808, 65.14050030578122]}}, {"type": "Feature", "properties": {"norad_id": 36061, "name": "COSMOS 2251 DEB", "group": "cosmos-2251-debris", "lat": -61.90163363576714, "lon": -52.217348659149465, "alt_km": 803.5555151967455, "timestamp": "2025-12-23T09:49:07.480082+00:00", "meta": {"OBJECT_NAME": "COSMOS 2251 DEB", "OBJECT_ID": "1993-036AXY", "EPOCH": "2025-12-22T05:39:37.195488", "MEAN_MOTION": 14.33723383, "ECCENTRICITY": 0.00369223, "INCLINATION": 74.0244, "RA_OF_ASC_NODE": 342.3781, "ARG_OF_PERICENTER": 67.3143, "MEAN_ANOMALY": 293.1905, "EPHEMERIS_TYPE": 0, "CLASSIFICATION_TYPE": "U", "NORAD_CAT_ID": 36061, "ELEMENT_SET_NO": 999, "REV_AT_EPOCH": 65240, "BSTAR": 0.00028443086, "MEAN_MOTION_DOT": 7.7e-06, "MEAN_MOTION_DDOT": 0}, "tle": {"line1": "1 36061U 93036AXY 25356.23584717  .00000770  00000+0  28443-3 0  9992", "line2": "2 36061  74.0244 342.3781 0036922  67.3143 293.1905 14.33723383652406"}}, "geometry": {"type": "Point", "coordinates": [-52.217348659149465, -61.90163363576714]}}, {"type": "Feature", "properties": {"norad_id": 36073, "name": "COSMOS 2251 DEB", "group": "cosmos-2251-debris", "lat": 70.18907536467727, "lon": -4.360039363860713, "alt_km": 762.1027290479024, "timestamp": "2025-12-23T09:49:07.480092+00:00", "meta": {"OBJECT_NAME": "COSMOS 2251 DEB", "OBJECT_ID": "1993-036AYL", "EPOCH": "2025-12-18T03:58:06.481920", "MEAN_MOTION": 14.34959898, "ECCENTRICITY": 0.00240895, "INCLINATION": 74.0326, "RA_OF_ASC_NODE": 312.6126, "ARG_OF_PERICENTER": 19.0207, "MEAN_ANOMALY": 341.1839, "EPHEMERIS_TYPE": 0, "CLASSIFICATION_TYPE": "U", "NORAD_CAT_ID": 36073, "ELEMENT_SET_NO": 999, "REV_AT_EPOCH": 70285, "BSTAR": 0.0001893667, "MEAN_MOTION_DOT": 5.14e-06, "MEAN_MOTION_DDOT": 0}, "tle": {"line1": "1 36073U 93036AYL 25352.16535280  .00000514  00000+0  18937-3 0  9997", "line2": "2 36073  74.0326 312.6126 0024089  19.0207 341.1839 14.34959898702857"}}, "geometry": {"type": "Point", "coordinates": [-4.360039363860713, 70.18907536467727]}}, {"type": "Feature", "properties": {"norad_id": 36074, "name": "COSMOS 2251 DEB", "group": "cosmos-2251-debris", "lat": -12.559295500245346, "lon": 144.26312975983686, "alt_km": 774.092414810274, "timestamp": "2025-12-23T09:49:07.480102+00:00", "meta": {"OBJECT_NAME": "COSMOS 2251 DEB", "OBJECT_ID": "1993-036AYM", "EPOCH": "2025-12-21T22:00:31.883616", "MEAN_MOTION": 14.43788604, "ECCENTRICITY": 0.00418297, "INCLINATION": 73.993, "RA_OF_ASC_NODE": 323.3766, "ARG_OF_PERICENTER": 52.2437, "MEAN_ANOMALY": 308.2498, "EPHEMERIS_TYPE": 0, "CLASSIFICATION_TYPE": "U", "NORAD_CAT_ID": 36074, "ELEMENT_SET_NO": 999, "REV_AT_EPOCH": 86042, "BSTAR": 0.0010374017, "MEAN_MOTION_DOT": 3.543e-05, "MEAN_MOTION_DDOT": 0}, "tle": {"line1": "1 36074U 93036AYM 25355.91703569  .00003543  00000+0  10374-2 0  9992", "line2": "2 36074  73.9930 323.3766 0041829  52.2437 308.2498 14.43788604860429"}}, "geometry": {"type": "Point", "coordinates": [144.26312975983686, -12.559295500245346]}}]}